ONEWEB-0220             
1 48232U 21031Y   24077.93787830  .00000136  00000+0  33324-3 0  9998
2 48232  87.8883  93.1550 0001966 102.5209 257.6141 13.14503099140519
ONEWEB-0165             
1 48233U 21031Z   24077.58583479  .00000082  00000+0  18746-3 0  9994
2 48233  87.8894  93.2362 0001762  95.7104 264.4227 13.14502177140422
ONEWEB-0199             
1 48234U 21031AA  24078.10280316  .00000217  00000+0  55053-3 0  9990
2 48234  87.8890  93.1035 0001876  95.2477 264.8867 13.14502245140395
ONEWEB-0197             
1 48236U 21031AC  24077.53587548 -.00000173  00000+0 -50188-3 0  9992
2 48236  87.8892  93.2258 0002319  90.7436 269.3960 13.14501707140245
ONEWEB-0194             
1 48237U 21031AD  24077.59058473  .00000027  00000+0  38739-4 0  9994
2 48237  87.8893  93.2069 0001897  80.7329 279.4016 13.14502093140420
ONEWEB-0193             
1 48238U 21031AE  24077.60644475 -.00000170  00000+0 -49228-3 0  9995
2 48238  87.8893  93.2122 0001751  93.3371 266.7959 13.14502029140375
ONEWEB-0191             
1 48239U 21031AF  24077.54142416 -.00000137  00000+0 -40278-3 0  9996
2 48239  87.8890  93.2115 0001854  89.8365 270.2977 13.14501642140226
